BEIDOU-3 M2             
1 43002U 17069B   26059.60656196  .00000002  00000+0  00000+0 0  9993
2 43002  56.5962  66.6958 0009614 328.4863  31.4966  1.86230525 56572
GSAT0215 (GALILEO 19)   
1 43055U 17079A   26058.91140776  .00000032  00000+0  00000+0 0  9990
2 43055  55.1102 224.5103 0000662  18.6698 341.2932  1.70474334 51128
GSAT0216 (GALILEO 20)   
1 43056U 17079B   26059.20262884  .00000028  00000+0  00000+0 0  9994
2 43056  55.1093 224.5024 0001682 323.3760  36.5709  1.70474475 51143
GSAT0217 (GALILEO 21)   
1 43057U 17079C   26058.83680325  .00000033  00000+0  00000+0 0  9993
2 43057  55.1101 224.5102 0002078 358.4163   1.5441  1.70474377 51121
GSAT0218 (GALILEO 22)   
1 43058U 17079D   26060.22999436  .00000018  00000+0  00000+0 0  9999
2 43058  55.1053 224.4697 0001889 305.5636  54.3694  1.70474409 51170
BEIDOU-3 M7             
1 43107U 18003A   26059.88555953 -.00000046  00000+0  00000+0 0  9996
2 43107  54.4241 306.0930 0004590  70.5904 289.5176  1.86232253 55337
BEIDOU-3 M8             
1 43108U 18003B   26059.83108493 -.00000046  00000+0  00000+0 0  9995
2 43108  54.4168 306.0781 0003315 291.7790  68.2441  1.86230786 55341
BEIDOU-3 M4             
1 43207U 18018A   26060.27328956 -.00000001  00000+0  00000+0 0  9990
2 43207  56.5572  66.7052 0006849 350.3261   9.6997  1.86230768 54731
BEIDOU-3 M3             
1 43208U 18018B   26060.33973838 -.00000001  00000+0  00000+0 0  9993
2 43208  56.5566  66.7071 0009892 319.3285  40.6363  1.86230859 54731
BEIDOU-3 M9             
1 43245U 18029A   26060.01989255 -.00000042  00000+0  00000+0 0  9996
2 43245  54.2912 303.7325 0000921  20.5005 339.5630  1.86227979 53884
BEIDOU-3 M10            
1 43246U 18029B   26059.95478111 -.00000042  00000+0  00000+0 0  9992
2 43246  54.2888 303.7627 0005048  21.6630 338.4180  1.86228901 53865
IRNSS-1I                
1 43286U 18035A   26060.12336356  .00000076  00000+0  00000+0 0  9994
2 43286  28.9216  75.8655 0019256 189.8352 352.6928  1.00276166 28990
COSMOS 2527 [GLONASS-M] 
1 43508U 18053A   26060.15457887  .00000041  00000+0  00000+0 0  9999
2 43508  65.5160  77.5103 0009630 244.8081 115.1487  2.13102047 59970
BEIDOU-2 IGSO-7         
1 43539U 18057A   26056.73984515 -.00000161  00000+0  00000+0 0  9993
2 43539  55.1859 164.0342 0099962 236.5988 133.5173  1.00284731 28015
GSAT0221 (GALILEO 25)   
1 43564U 18060A   26059.54670036 -.00000105  00000+0  00000+0 0  9995
2 43564  57.2051 344.7173 0005804 306.7848  53.1689  1.70475369 47315
GSAT0222 (GALILEO 26)   
1 43565U 18060B   26055.66007047 -.00000092  00000+0  00000+0 0  9996
2 43565  57.2093 344.8256 0004435 285.4820  74.4799  1.70474973 47292
GSAT0219 (GALILEO 23)   
1 43566U 18060C   26053.53475141 -.00000082  00000+0  00000+0 0  9994
2 43566  57.2094 344.8846 0005774 308.6957  51.2673  1.70475208 47235
GSAT0220 (GALILEO 24)   
1 43567U 18060D   26058.44840234 -.00000102  00000+0  00000+0 0  9992
2 43567  57.2075 344.7516 0005301 308.5821  51.3768  1.70475159 47302
BEIDOU-3 M5             
1 43581U 18062A   26059.64194559 -.00000030  00000+0  00000+0 0  9995
2 43581  54.0883 185.9939 0002142 311.6058  48.3275  1.86228457 51613
BEIDOU-3 M6             
1 43582U 18062B   26059.50483865 -.00000029  00000+0  00000+0 0  9990
2 43582  54.0879 185.9878 0006295  43.8159 316.1858  1.86227508 51619
BEIDOU-3 M12            
1 43602U 18067A   26060.51717887 -.00000032  00000+0  00000+0 0  9999
2 43602  54.1831 184.6910 0008635  40.1631 319.8532  1.86227647 51117
BEIDOU-3 M11            
1 43603U 18067B   26059.57799784 -.00000030  00000+0  00000+0 0  9998
2 43603  54.1806 184.6868 0005019  34.9301 325.0559  1.86227045 51121
BEIDOU-3 M13            
1 43622U 18072A   26060.07090161 -.00000001  00000+0  00000+0 0  9993
2 43622  56.5296  66.2261 0008837 307.1015  52.8563  1.86230830 50643
BEIDOU-3 M14            
1 43623U 18072B   26059.39940667  .00000002  00000+0  00000+0 0  9992
2 43623  56.5307  66.2423 0006323 328.2609  31.7411  1.86230836 50620
BEIDOU-3 M16            
1 43647U 18078A   26060.09325671 -.00000042  00000+0  00000+0 0  9990
2 43647  54.1872 303.7769 0008416  30.5698 329.5390  1.86232242 50149
BEIDOU-3 M15            
1 43648U 18078B   26060.22254667 -.00000043  00000+0  00000+0 0  9993
2 43648  54.1835 303.7733 0005146  35.7790 324.3153  1.86232035 50169
BEIDOU-3 G1             
1 43683U 18085A   26060.55367641 -.00000296  00000+0  00000+0 0  9993
2 43683   2.8027 100.4722 0001254  33.4453   4.8085  1.00269352 26983
COSMOS 2529 [GLONASS-M] 
1 43687U 18086A   26058.37448306  .00000008  00000+0  00000+0 0  9993
2 43687  64.2955 196.2992 0007959 253.0448 106.8346  2.13101880 56941
BEIDOU-3 M17            
1 43706U 18093A   26060.44179963 -.00000031  00000+0  00000+0 0  9991
2 43706  54.1716 185.9513 0006947 297.5558 102.4053  1.86228310 49532
BEIDOU-3 M18            
1 43707U 18093B   26060.24432845 -.00000031  00000+0  00000+0 0  9991
2 43707  54.1727 185.9497 0006014 341.9968  17.9329  1.86226359 49526
NAVSTAR 77 (USA 289)    
1 43873U 18109A   26060.25145834  .00000021  00000+0  00000+0 0  9991
2 43873  55.6128  96.4437 0037866 198.2214 112.1971  2.00556460 52900
